[{"OBJECT_NAME":"EXPRESS-AM7","OBJECT_ID":"2015-012A","EPOCH":"2026-03-05T12:28:35.421024","MEAN_MOTION":1.0027626,"ECCENTRICITY":0.0002951,"INCLINATION":0.0205,"RA_OF_ASC_NODE":190.53,"ARG_OF_PERICENTER":142.4206,"MEAN_ANOMALY":57.4704,"EPHEMERIS_TYPE":0,"CLASSIFICATION_TYPE":"U","NORAD_CAT_ID":40505,"ELEMENT_SET_NO":999,"REV_AT_EPOCH":3996,"BSTAR":0,"MEAN_MOTION_DOT":1.43e-6,"MEAN_MOTION_DDOT":0},{"OBJECT_NAME":"BEIDOU-3S IGSO-1S","OBJECT_ID":"2015-019A","EPOCH":"2026-03-05T14:27:24.030144","MEAN_MOTION":1.00273608,"ECCENTRICITY":0.0035816,"INCLINATION":49.3881,"RA_OF_ASC_NODE":296.7093,"ARG_OF_PERICENTER":190.5073,"MEAN_ANOMALY":349.448,"EPHEMERIS_TYPE":0,"CLASSIFICATION_TYPE":"U","NORAD_CAT_ID":40549,"ELEMENT_SET_NO":999,"REV_AT_EPOCH":4003,"BSTAR":0,"MEAN_MOTION_DOT":-1.65e-6,"MEAN_MOTION_DDOT":0},{"OBJECT_NAME":"THOR 7","OBJECT_ID":"2015-022A","EPOCH":"2026-03-06T05:23:46.913856","MEAN_MOTION":1.00271888,"ECCENTRICITY":0.00026299,"INCLINATION":0.0108,"RA_OF_ASC_NODE":154.1178,"ARG_OF_PERICENTER":194.779,"MEAN_ANOMALY":255.3194,"EPHEMERIS_TYPE":0,"CLASSIFICATION_TYPE":"U","NORAD_CAT_ID":40613,"ELEMENT_SET_NO":999,"REV_AT_EPOCH":3978,"BSTAR":0,"MEAN_MOTION_DOT":-1.4e-7,"MEAN_MOTION_DDOT":0},{"OBJECT_NAME":"TURKMENALEM52E/MONACOSAT","OBJECT_ID":"2015-023A","EPOCH":"2026-03-05T10:49:22.435104","MEAN_MOTION":1.00275311,"ECCENTRICITY":0.0002927,"INCLINATION":0.0146,"RA_OF_ASC_NODE":131.0008,"ARG_OF_PERICENTER":224.4072,"MEAN_ANOMALY":22.1559,"EPHEMERIS_TYPE":0,"CLASSIFICATION_TYPE":"U","NORAD_CAT_ID":40617,"ELEMENT_SET_NO":999,"REV_AT_EPOCH":3980,"BSTAR":0,"MEAN_MOTION_DOT":9.6e-7,"MEAN_MOTION_DDOT":0},{"OBJECT_NAME":"DIRECTV 15","OBJECT_ID":"2015-026A","EPOCH":"2026-03-06T04:24:38.565216","MEAN_MOTION":1.00270336,"ECCENTRICITY":3.715e-5,"INCLINATION":0.024,"RA_OF_ASC_NODE":102.4944,"ARG_OF_PERICENTER":105.1907,"MEAN_ANOMALY":279.4884,"EPHEMERIS_TYPE":0,"CLASSIFICATION_TYPE":"U","NORAD_CAT_ID":40663,"ELEMENT_SET_NO":999,"REV_AT_EPOCH":3943,"BSTAR":0,"MEAN_MOTION_DOT":-1.07e-6,"MEAN_MOTION_DDOT":0},{"OBJECT_NAME":"SKY MEXICO-1","OBJECT_ID":"2015-026B","EPOCH":"2026-03-05T10:11:56.023872","MEAN_MOTION":1.00269501,"ECCENTRICITY":0.000225,"INCLINATION":0.02,"RA_OF_ASC_NODE":125.8533,"ARG_OF_PERICENTER":238.8701,"MEAN_ANOMALY":232.6041,"EPHEMERIS_TYPE":0,"CLASSIFICATION_TYPE":"U","NORAD_CAT_ID":40664,"ELEMENT_SET_NO":999,"REV_AT_EPOCH":3941,"BSTAR":0,"MEAN_MOTION_DOT":-2.42e-6,"MEAN_MOTION_DDOT":0},{"OBJECT_NAME":"METEOSAT-11 (MSG-4)","OBJECT_ID":"2015-034A","EPOCH":"2026-03-06T05:26:39.139296","MEAN_MOTION":1.00266672,"ECCENTRICITY":0.00018062,"INCLINATION":2.9422,"RA_OF_ASC_NODE":71.6698,"ARG_OF_PERICENTER":270.7557,"MEAN_ANOMALY":272.5461,"EPHEMERIS_TYPE":0,"CLASSIFICATION_TYPE":"U","NORAD_CAT_ID":40732,"ELEMENT_SET_NO":999,"REV_AT_EPOCH":618,"BSTAR":0,"MEAN_MOTION_DOT":5.7e-7,"MEAN_MOTION_DDOT":0},{"OBJECT_NAME":"STAR ONE C4","OBJECT_ID":"2015-034B","EPOCH":"2026-03-06T01:38:45.991104","MEAN_MOTION":1.00272527,"ECCENTRICITY":0.00027553,"INCLINATION":0.0396,"RA_OF_ASC_NODE":26.0328,"ARG_OF_PERICENTER":327.4961,"MEAN_ANOMALY":124.9456,"EPHEMERIS_TYPE":0,"CLASSIFICATION_TYPE":"U","NORAD_CAT_ID":40733,"ELEMENT_SET_NO":999,"REV_AT_EPOCH":3898,"BSTAR":0,"MEAN_MOTION_DOT":-2.71e-6,"MEAN_MOTION_DDOT":0},{"OBJECT_NAME":"WGS F7 (USA 263)","OBJECT_ID":"2015-036A","EPOCH":"2026-03-05T19:57:47.509632","MEAN_MOTION":1.00272768,"ECCENTRICITY":1.839e-5,"INCLINATION":0.0133,"RA_OF_ASC_NODE":121.8687,"ARG_OF_PERICENTER":215.9784,"MEAN_ANOMALY":300.1725,"EPHEMERIS_TYPE":0,"CLASSIFICATION_TYPE":"U","NORAD_CAT_ID":40746,"ELEMENT_SET_NO":999,"REV_AT_EPOCH":3883,"BSTAR":0,"MEAN_MOTION_DOT":1.1e-7,"MEAN_MOTION_DDOT":0},{"OBJECT_NAME":"ARIANE 2 DEB","OBJECT_ID":"1989-006CG","EPOCH":"2026-02-27T09:33:55.411200","MEAN_MOTION":2.25299,"ECCENTRICITY":0.71364051,"INCLINATION":8.0815,"RA_OF_ASC_NODE":291.0276,"ARG_OF_PERICENTER":19.7568,"MEAN_ANOMALY":282.0158,"EPHEMERIS_TYPE":0,"CLASSIFICATION_TYPE":"U","NORAD_CAT_ID":40787,"ELEMENT_SET_NO":999,"REV_AT_EPOCH":10096,"BSTAR":2.8951075e-5,"MEAN_MOTION_DOT":-1.6e-6,"MEAN_MOTION_DDOT":0},{"OBJECT_NAME":"CZ-3A DEB","OBJECT_ID":"2007-003AS","EPOCH":"2026-03-05T08:18:23.535072","MEAN_MOTION":1.7244406,"ECCENTRICITY":0.7666616,"INCLINATION":26.6025,"RA_OF_ASC_NODE":83.5889,"ARG_OF_PERICENTER":153.1808,"MEAN_ANOMALY":286.9473,"EPHEMERIS_TYPE":0,"CLASSIFICATION_TYPE":"U","NORAD_CAT_ID":40813,"ELEMENT_SET_NO":999,"REV_AT_EPOCH":8267,"BSTAR":0.001817,"MEAN_MOTION_DOT":1.79e-6,"MEAN_MOTION_DDOT":0},{"OBJECT_NAME":"CZ-3B DEB","OBJECT_ID":"2010-042X","EPOCH":"2026-03-05T13:51:35.470368","MEAN_MOTION":1.90416634,"ECCENTRICITY":0.7381782,"INCLINATION":25.9066,"RA_OF_ASC_NODE":183.1166,"ARG_OF_PERICENTER":116.8405,"MEAN_ANOMALY":333.6542,"EPHEMERIS_TYPE":0,"CLASSIFICATION_TYPE":"U","NORAD_CAT_ID":40814,"ELEMENT_SET_NO":999,"REV_AT_EPOCH":7879,"BSTAR":-0.0065034,"MEAN_MOTION_DOT":-2.12e-6,"MEAN_MOTION_DDOT":0},{"OBJECT_NAME":"CZ-3B DEB","OBJECT_ID":"2010-042Y","EPOCH":"2026-02-27T12:32:14.707680","MEAN_MOTION":1.91047331,"ECCENTRICITY":0.7337656,"INCLINATION":25.8904,"RA_OF_ASC_NODE":162.3234,"ARG_OF_PERICENTER":167.354,"MEAN_ANOMALY":233.6111,"EPHEMERIS_TYPE":0,"CLASSIFICATION_TYPE":"U","NORAD_CAT_ID":40815,"ELEMENT_SET_NO":999,"REV_AT_EPOCH":468,"BSTAR":-0.0082834612,"MEAN_MOTION_DOT":-3.72e-6,"MEAN_MOTION_DDOT":0},{"OBJECT_NAME":"CZ-3C DEB","OBJECT_ID":"2010-057AK","EPOCH":"2026-03-05T08:54:24.360192","MEAN_MOTION":2.25732239,"ECCENTRICITY":0.7127433,"INCLINATION":19.8687,"RA_OF_ASC_NODE":131.7361,"ARG_OF_PERICENTER":97.3979,"MEAN_ANOMALY":341.2013,"EPHEMERIS_TYPE":0,"CLASSIFICATION_TYPE":"U","NORAD_CAT_ID":40818,"ELEMENT_SET_NO":999,"REV_AT_EPOCH":9063,"BSTAR":7.5251e-5,"MEAN_MOTION_DOT":-3.9e-7,"MEAN_MOTION_DDOT":0},{"OBJECT_NAME":"CZ-3C DEB","OBJECT_ID":"2010-057AQ","EPOCH":"2026-03-04T08:53:35.683296","MEAN_MOTION":2.23709855,"ECCENTRICITY":0.71941401,"INCLINATION":20.3868,"RA_OF_ASC_NODE":102.6511,"ARG_OF_PERICENTER":137.3116,"MEAN_ANOMALY":309.2868,"EPHEMERIS_TYPE":0,"CLASSIFICATION_TYPE":"U","NORAD_CAT_ID":40823,"ELEMENT_SET_NO":999,"REV_AT_EPOCH":9067,"BSTAR":-2.5499354e-5,"MEAN_MOTION_DOT":-3.7e-7,"MEAN_MOTION_DDOT":0},{"OBJECT_NAME":"CZ-3C DEB","OBJECT_ID":"2010-057BB","EPOCH":"2026-03-01T11:11:25.935360","MEAN_MOTION":2.19667406,"ECCENTRICITY":0.71664956,"INCLINATION":19.8197,"RA_OF_ASC_NODE":176.3974,"ARG_OF_PERICENTER":22.5012,"MEAN_ANOMALY":357.1343,"EPHEMERIS_TYPE":0,"CLASSIFICATION_TYPE":"U","NORAD_CAT_ID":40834,"ELEMENT_SET_NO":999,"REV_AT_EPOCH":8814,"BSTAR":0.0019935,"MEAN_MOTION_DOT":-1.5e-6,"MEAN_MOTION_DDOT":0},{"OBJECT_NAME":"CZ-3C DEB","OBJECT_ID":"2010-057BC","EPOCH":"2026-03-05T11:13:41.468448","MEAN_MOTION":2.20288226,"ECCENTRICITY":0.7198555,"INCLINATION":19.527,"RA_OF_ASC_NODE":151.2313,"ARG_OF_PERICENTER":72.1353,"MEAN_ANOMALY":349.4193,"EPHEMERIS_TYPE":0,"CLASSIFICATION_TYPE":"U","NORAD_CAT_ID":40835,"ELEMENT_SET_NO":999,"REV_AT_EPOCH":1007,"BSTAR":0.0004979,"MEAN_MOTION_DOT":-3.2e-7,"MEAN_MOTION_DDOT":0}]
