EXPRESS-AM7             
1 40505U 15012A   26064.51985441  .00000143  00000+0  00000+0 0  9994
2 40505   0.0205 190.5300 0002951 142.4206  57.4704  1.00276260 39965
BEIDOU-3S IGSO-1S       
1 40549U 15019A   26064.60236146 -.00000165  00000+0  00000+0 0  9995
2 40549  49.3881 296.7093 0035816 190.5073 349.4480  1.00273608 40037
THOR 7                  
1 40613U 15022A   26065.22484854 -.00000014  00000+0  00000+0 0  9994
2 40613   0.0108 154.1178 0002629 194.7790 255.3194  1.00271888 39789
TURKMENALEM52E/MONACOSAT
1 40617U 15023A   26064.45095411  .00000096  00000+0  00000+0 0  9999
2 40617   0.0146 131.0008 0002927 224.4072  22.1559  1.00275311 39809
DIRECTV 15              
1 40663U 15026A   26065.18377969 -.00000107  00000+0  00000+0 0  9999
2 40663   0.0240 102.4944 0000371 105.1907 279.4884  1.00270336 39438
SKY MEXICO-1            
1 40664U 15026B   26064.42495398 -.00000242  00000+0  00000+0 0  9993
2 40664   0.0200 125.8533 0002250 238.8701 232.6041  1.00269501 39418
METEOSAT-11 (MSG-4)     
1 40732U 15034A   26065.22684189  .00000057  00000+0  00000+0 0  9998
2 40732   2.9422  71.6698 0001806 270.7557 272.5461  1.00266672  6184
STAR ONE C4             
1 40733U 15034B   26065.06858786 -.00000271  00000+0  00000+0 0  9996
2 40733   0.0396  26.0328 0002755 327.4961 124.9456  1.00272527 38984
WGS F7 (USA 263)        
1 40746U 15036A   26064.83179988  .00000011  00000+0  00000+0 0  9997
2 40746   0.0133 121.8687 0000183 215.9784 300.1725  1.00272768 38834
ARIANE 2 DEB            
1 40787U 89006CG  26058.39855800 -.00000160  00000+0  28951-4 0  9994
2 40787   8.0815 291.0276 7136405  19.7568 282.0158  2.25299000100960
CZ-3A DEB               
1 40813U 07003AS  26064.34610573  .00000179  00000+0  18170-2 0  9998
2 40813  26.6025  83.5889 7666616 153.1808 286.9473  1.72444060 82674
CZ-3B DEB               
1 40814U 10042X   26064.57749387 -.00000212  00000+0 -65034-2 0  9998
2 40814  25.9066 183.1166 7381782 116.8405 333.6542  1.90416634 78795
CZ-3B DEB               
1 40815U 10042Y   26058.52239245 -.00000372  00000+0 -82835-2 0  9999
2 40815  25.8904 162.3234 7337656 167.3540 233.6111  1.91047331  4686
CZ-3C DEB               
1 40818U 10057AK  26064.37111528 -.00000039  00000+0  75251-4 0  9996
2 40818  19.8687 131.7361 7127433  97.3979 341.2013  2.25732239 90632
CZ-3C DEB               
1 40823U 10057AQ  26063.37055189 -.00000037  00000+0 -25499-4 0  9999
2 40823  20.3868 102.6511 7194140 137.3116 309.2868  2.23709855 90679
CZ-3C DEB               
1 40834U 10057BB  26060.46627240 -.00000150  00000+0  19935-2 0  9992
2 40834  19.8197 176.3974 7166495  22.5012 357.1343  2.19667406 88141
CZ-3C DEB               
1 40835U 10057BC  26064.46784107 -.00000032  00000+0  49790-3 0  9995
2 40835  19.5270 151.2313 7198555  72.1353 349.4193  2.20288226 10076
